{
  "norad_id": 57742,
  "name": "STARLINK-30308",
  "history": [
    {
      "epoch": "2026-03-28T14:57:51.715008Z",
      "apogee_km": 486.4195269420061,
      "perigee_km": 484.7145828547691,
      "latitude_deg": -4.7769472955325555e-05,
      "longitude_deg": 14.891669395181323,
      "height_km": 485.53645181519107,
      "semi_major_axis_km": 6863.704054898388,
      "eccentricity": 0.0001242,
      "inclination_deg": 43.0009,
      "raan_deg": 65.3985,
      "arg_perigee_deg": 256.9359,
      "mean_anomaly_deg": 103.1353,
      "mean_motion_rev_day": 15.26739485
    }
  ]
}